
# Worst residual: 25.59 km
# MJD 57978.000000 (2017 Aug 13  0:00)
1969-046E = NORAD 03955 = Vela 5b
1 03955U 69046E   17225.49919926  .00000000  00000-0  00000-0 0 13460
2 03955 048.7847 268.0071 7221802 087.3603 004.0538 00.21390391    03

# Worst residual: 5.97 km
# MJD 57979.000000 (2017 Aug 14  0:00)
1969-046E = NORAD 03955 = Vela 5b
1 03955U 69046E   17226.49919926  .00000000  00000-0  00000-0 0 13461
2 03955 048.7770 267.9330 7217592 087.4489 080.9892 00.21353803    01

# Worst residual: 1.49 km
# MJD 57980.000000 (2017 Aug 15  0:00)
1969-046E = NORAD 03955 = Vela 5b
1 03955U 69046E   17227.49919926  .00000000  00000-0  00000-0 0 13462
2 03955 048.7752 267.8753 7212467 087.4560 157.9851 00.21357194    02

# Worst residual: 5.61 km
# MJD 57981.000000 (2017 Aug 16  0:00)
1969-046E = NORAD 03955 = Vela 5b
1 03955U 69046E   17228.49919926  .00000000  00000-0  00000-0 0 13463
2 03955 048.7700 267.8116 7210600 087.4920 234.8634 00.21362017    09

# Worst residual: 22.58 km
# MJD 57982.000000 (2017 Aug 17  0:00)
1969-046E = NORAD 03955 = Vela 5b
1 03955U 69046E   17229.49919926  .00000000  00000-0  00000-0 0 13464
2 03955 048.7670 267.7343 7204147 087.6218 311.5746 00.21421978    06

# Worst residual: 49.78 km
# MJD 57983.000000 (2017 Aug 18  0:00)
1969-046E = NORAD 03955 = Vela 5b
1 03955U 69046E   17230.49919926  .00000000  00000-0  00000-0 0 13466
2 03955 048.7671 267.6641 7191485 087.4959 028.7661 00.21458370    06

# Worst residual: 5.87 km
# MJD 57984.000000 (2017 Aug 19  0:00)
1969-046E = NORAD 03955 = Vela 5b
1 03955U 69046E   17231.49919926  .00000000  00000-0  00000-0 0 13467
2 03955 048.7472 267.5594 7201032 087.5427 105.6620 00.21400387    07

# Worst residual: 5.20 km
# MJD 57985.000000 (2017 Aug 20  0:00)
1969-046E = NORAD 03955 = Vela 5b
1 03955U 69046E   17232.49919926  .00000000  00000-0  00000-0 0 13468
2 03955 048.7462 267.5208 7193189 087.5634 182.7048 00.21388282    00

# Worst residual: 7.26 km
# MJD 57986.000000 (2017 Aug 21  0:00)
1969-046E = NORAD 03955 = Vela 5b
1 03955U 69046E   17233.49919926  .00000000  00000-0  00000-0 0 13469
2 03955 048.7314 267.5511 7187147 087.4915 259.8286 00.21377144    06

# Worst residual: 24.89 km
# MJD 57987.000000 (2017 Aug 22  0:00)
1969-046E = NORAD 03955 = Vela 5b
1 03955U 69046E   17234.49919926  .00000000  00000-0  00000-0 0 13460
2 03955 048.7286 267.4929 7183769 087.5061 336.8414 00.21380735    04

# Worst residual: 15.17 km
# MJD 57988.000000 (2017 Aug 23  0:00)
1969-046E = NORAD 03955 = Vela 5b
1 03955U 69046E   17235.49919926  .00000000  00000-0  00000-0 0 13461
2 03955 048.7023 267.4567 7181599 087.4466 053.8889 00.21393531    08

# Worst residual: 3.42 km
# MJD 57989.000000 (2017 Aug 24  0:00)
1969-046E = NORAD 03955 = Vela 5b
1 03955U 69046E   17236.49919926  .00000000  00000-0  00000-0 0 13462
2 03955 048.6818 267.3512 7175962 087.5371 130.8347 00.21371808    09

# Worst residual: 4.53 km
# MJD 57990.000000 (2017 Aug 25  0:00)
1969-046E = NORAD 03955 = Vela 5b
1 03955U 69046E   17237.49919926  .00000000  00000-0  00000-0 0 13463
2 03955 048.6750 267.2535 7170645 087.5586 207.9132 00.21369499    00

# Worst residual: 11.42 km
# MJD 57991.000000 (2017 Aug 26  0:00)
1969-046E = NORAD 03955 = Vela 5b
1 03955U 69046E   17238.49919926  .00000000  00000-0  00000-0 0 13464
2 03955 048.6886 267.0801 7166166 087.6511 284.8720 00.21371855    02

# Worst residual: 18.99 km
# MJD 57992.000000 (2017 Aug 27  0:00)
1969-046E = NORAD 03955 = Vela 5b
1 03955U 69046E   17239.49919926  .00000000  00000-0  00000-0 0 13465
2 03955 048.7143 266.9671 7160682 087.6753 001.8370 00.21366054    00

# Worst residual: 7.88 km
# MJD 57993.000000 (2017 Aug 28  0:00)
1969-046E = NORAD 03955 = Vela 5b
1 03955U 69046E   17240.49919926  .00000000  00000-0  00000-0 0 13467
2 03955 048.7121 266.9017 7157213 087.7341 078.7285 00.21340171    00

# Worst residual: 7.36 km
# MJD 57994.000000 (2017 Aug 29  0:00)
1969-046E = NORAD 03955 = Vela 5b
1 03955U 69046E   17241.49919926  .00000000  00000-0  00000-0 0 13468
2 03955 048.7154 266.8662 7158930 087.6484 155.8962 00.21374125    00

# Worst residual: 4.00 km
# MJD 57995.000000 (2017 Aug 30  0:00)
1969-046E = NORAD 03955 = Vela 5b
1 03955U 69046E   17242.49919926  .00000000  00000-0  00000-0 0 13469
2 03955 048.7095 266.8208 7162340 087.6181 233.0841 00.21384642    04

# Worst residual: 13.19 km
# MJD 57996.000000 (2017 Aug 31  0:00)
1969-046E = NORAD 03955 = Vela 5b
1 03955U 69046E   17243.49919926  .00000000  00000-0  00000-0 0 13460
2 03955 048.7001 266.7620 7157653 087.6429 310.0803 00.21396063    08

# Worst residual: 27.11 km
# MJD 57997.000000 (2017 Sep  1  0:00)
1969-046E = NORAD 03955 = Vela 5b
1 03955U 69046E   17244.49919926  .00000000  00000-0  00000-0 0 13461
2 03955 048.7010 266.7010 7148612 087.5719 027.1660 00.21414868    08

# Worst residual: 5.66 km
# MJD 57998.000000 (2017 Sep  2  0:00)
1969-046E = NORAD 03955 = Vela 5b
1 03955U 69046E   17245.49919926  .00000000  00000-0  00000-0 0 13462
2 03955 048.6846 266.6075 7153440 087.6316 104.0011 00.21367920    04

# Worst residual: 2.05 km
# MJD 57999.000000 (2017 Sep  3  0:00)
1969-046E = NORAD 03955 = Vela 5b
1 03955U 69046E   17246.49919926  .00000000  00000-0  00000-0 0 13463
2 03955 048.6755 266.5121 7152526 087.6906 180.8700 00.21365282    09

# Worst residual: 3.36 km
# MJD 58000.000000 (2017 Sep  4  0:00)
1969-046E = NORAD 03955 = Vela 5b
1 03955U 69046E   17247.49919926  .00000000  00000-0  00000-0 0 13464
2 03955 048.6700 266.4352 7152721 087.7301 257.8324 00.21372439    00

# Worst residual: 26.28 km
# MJD 58001.000000 (2017 Sep  5  0:00)
1969-046E = NORAD 03955 = Vela 5b
1 03955U 69046E   17248.49919926  .00000000  00000-0  00000-0 0 13465
2 03955 048.6875 266.3276 7151569 087.8147 334.8193 00.21391070    07

# Worst residual: 15.51 km
# MJD 58002.000000 (2017 Sep  6  0:00)
1969-046E = NORAD 03955 = Vela 5b
1 03955U 69046E   17249.49919926  .00000000  00000-0  00000-0 0 13466
2 03955 048.6636 266.2954 7149310 087.7544 051.9084 00.21404777    00

# Worst residual: 6.63 km
# MJD 58003.000000 (2017 Sep  7  0:00)
1969-046E = NORAD 03955 = Vela 5b
1 03955U 69046E   17250.49919926  .00000000  00000-0  00000-0 0 13468
2 03955 048.6460 266.1995 7146235 087.8686 128.7229 00.21365379    08

# Worst residual: 7.22 km
# MJD 58004.000000 (2017 Sep  8  0:00)
1969-046E = NORAD 03955 = Vela 5b
1 03955U 69046E   17251.49919926  .00000000  00000-0  00000-0 0 13469
2 03955 048.6446 266.1810 7143271 087.8979 205.5115 00.21361788    08

# Worst residual: 8.38 km
# MJD 58005.000000 (2017 Sep  9  0:00)
1969-046E = NORAD 03955 = Vela 5b
1 03955U 69046E   17252.49919926  .00000000  00000-0  00000-0 0 13460
2 03955 048.6337 266.1441 7142866 087.9674 282.3051 00.21388194    01
